INMARSAT 4-F3           
1 33278U 08039A   20225.66945426 -.00000137  00000-0  00000+0 0  9997
2 33278   3.1424  13.1286 0002830 135.3711 316.0854  1.00270157 43865
NIMIQ 4                 
1 33373U 08044A   20226.34007889 -.00000218  00000-0  00000+0 0  9997
2 33373   0.0065  44.1599 0002223 100.8784 217.6158  1.00272567 43446
GALAXY 19 (G-19)        
1 33376U 08045A   20226.10083605 -.00000137  00000-0  00000-0 0  9996
2 33376   0.0094 118.7500 0003284  34.7914 107.7417  1.00271303 43544
ASTRA 1M                
1 33436U 08057A   20226.12395358  .00000123  00000-0  00000+0 0  9992
2 33436   0.0140 136.0879 0005218  10.2857 239.4865  1.00277556 43084
CIEL-2                  
1 33453U 08063A   20226.18105094  .00000060  00000-0  00000-0 0  9991
2 33453   0.0218 201.0448 0002938 315.5415 101.8182  1.00273381 42750
EUTELSAT HOT BIRD 13C   
1 33459U 08065A   20226.12273227  .00000089  00000-0  00000-0 0  9998
2 33459   0.0347  21.0975 0005263 109.6039 248.4958  1.00269933 25941
EUTELSAT 48D            
1 33460U 08065B   20226.12971115  .00000126  00000-0  00000-0 0  9993
2 33460   0.1065 276.3402 0004527 254.4707 245.9746  1.00270884 42554
FENGYUN 2E              
1 33463U 08066A   20223.59146521 -.00000205  00000-0  00000-0 0  9999
2 33463   4.4511  68.3847 0002633 299.7005 251.0210  1.00272950 42663
EXPRESS-AM44            
1 33595U 09007A   20226.11793429 -.00000086  00000-0  00000+0 0  9993
2 33595   0.0295 254.3586 0000905 351.7945 107.3109  1.00273049 42153
NSS-9                   
1 33749U 09008A   20226.36797517  .00000074  00000-0  00000+0 0  9990
2 33749   0.0469 287.7903 0002046 219.5066 130.4891  1.00273263 42167
EUTELSAT 33E            
1 33750U 09008B   20226.12674514  .00000158  00000-0  00000+0 0  9990
2 33750   0.0532  19.6516 0003731 132.0709 248.9886  1.00272936 42207
TELSTAR 11N             
1 34111U 09009A   20226.16785809 -.00000249  00000-0  00000-0 0  9990
2 34111   0.0169 107.1544 0002274  32.7334 205.0351  1.00270964 24840
EUTELSAT 10A            
1 34710U 09016A   20226.12212163  .00000070  00000-0  00000-0 0  9998
2 34710   0.0652  16.6012 0005311 123.2055 236.1438  1.00272011 19858
WGS F2 (USA 204)        
1 34713U 09017A   20226.14627157  .00000050  00000-0  00000+0 0  9994
2 34713   0.0141 113.4721 0001078 266.8980  54.5135  1.00269932 41549
SES-7 (PROTOSTAR 2)     
1 34941U 09027A   20226.33035378 -.00000343  00000-0  00000+0 0  9993
2 34941   0.0162  97.6017 0000992 154.1271 297.6526  1.00269260 41225
MEASAT-3A               
1 35362U 09032A   20226.06663958 -.00000239  00000-0  00000+0 0  9992
2 35362   0.0614 253.2306 0002848 295.5471 248.6537  1.00270346 40831
GOES 14                 
1 35491U 09033A   20226.11190914 -.00000090  00000-0  00000-0 0  9995
2 35491   0.4517  97.6462 0010187 117.3220  42.7901  1.00270646 40720
SIRIUS FM-5             
1 35493U 09034A   20226.29992503 -.00000198  00000-0  00000+0 0  9999
2 35493   0.0342 275.5306 0000136   9.3426  59.1369  1.00270631 40587
TERRESTAR-1             
1 35496U 09035A   20226.32497072 -.00000054  00000-0  00000+0 0  9999
2 35496   2.5597  19.4248 0002696 125.1164 183.6379  1.00272373 40767
ASIASAT 5               
1 35696U 09042A   20226.24148380 -.00000305  00000-0  00000-0 0  9995
2 35696   0.0081 114.1542 0001291   3.0567  32.3285  1.00269031 40292
JCSAT-RA (JCSAT-12)     
1 35755U 09044A   20226.35821341 -.00000029  00000-0  00000+0 0  9992
2 35755   0.0285 129.2915 0001883   8.3836 122.4325  1.00271359 40268
OPTUS D3                
1 35756U 09044B   20226.15125843 -.00000146  00000-0  00000-0 0  9996
2 35756   0.0499 314.9527 0002445 184.2706  33.2564  1.00270500 40163
PALAPA D                
1 35812U 09046A   20225.79267743 -.00000356  00000-0  00000-0 0  9999
2 35812   0.2998  94.5714 0002665  88.1417 177.2853  1.00272416 40265
NIMIQ 5                 
1 35873U 09050A   20226.19285308 -.00000254  00000-0  00000-0 0  9990
2 35873   0.0617 277.1330 0003320 246.9798 154.6844  1.00270551 39957
AMAZONAS 2              
1 35942U 09054A   20226.33452480 -.00000281  00000-0  00000+0 0  9993
2 35942   0.0207 147.8816 0005224 351.2264 242.5457  1.00271997 39787
COMSATBW-1              
1 35943U 09054B   20226.13267719  .00000026  00000-0  00000+0 0  9997
2 35943   0.0637 103.4505 0003209  46.8407 282.4936  1.00273089 39863
NSS-12                  
1 36032U 09058A   20226.13145587  .00000074  00000-0  00000+0 0  9992
2 36032   0.0578 285.0225 0002688 226.6262 274.6935  1.00270656 39522
THOR 6                  
1 36033U 09058B   20226.14340356 -.00000008  00000-0  00000+0 0  9993
2 36033   0.0382 266.4553 0002318 268.4848 197.8715  1.00272793 39578
INTELSAT 14 (IS-14)     
1 36097U 09064A   20226.32646479 -.00000271  00000-0  00000+0 0  9997
2 36097   0.0144 111.1314 0002127  38.4773 245.1386  1.00271695 39307
EUTELSAT 36B            
1 36101U 09065A   20226.20629425  .00000158  00000-0  00000+0 0  9996
2 36101   0.0655  13.4230 0004627 130.9685 287.8465  1.00272030 39415
INTELSAT 15 (IS-15)     
1 36106U 09067A   20226.06533104 -.00000183  00000-0  00000+0 0  9994
2 36106   0.0047  58.5008 0002187  92.7720 279.3541  1.00271653 39200
WGS F3 (USA 211)        
1 36108U 09068A   20226.11775983 -.00000094  00000-0  00000-0 0  9998
2 36108   0.0158 115.4124 0000324  98.6952 138.2878  1.00272653 25213
DIRECTV 12              
1 36131U 09075A   20226.33180576 -.00000101  00000-0  00000+0 0  9992
2 36131   0.0379 267.3385 0000251 142.4316 289.1004  1.00271887 38984
BEIDOU 3                
1 36287U 10001A   20226.10503486 -.00000279  00000-0  00000+0 0  9995
2 36287   1.4860  29.8322 0005424 120.7650 349.6412  1.00269878 38774
RADUGA-1M 2             
1 36358U 10002A   20226.13712620 -.00000182  00000-0  00000-0 0  9994
2 36358   0.0444 252.1036 0002663 265.5449 298.7341  1.00271211 28694
SDO                     
1 36395U 10005A   20225.25320132 -.00000082  00000-0  00000+0 0  9991
2 36395  30.4130 120.3739 0001526  18.2414 171.4401  1.00269256 38626
INTELSAT 16 (IS-16)     
1 36397U 10006A   20226.32027104 -.00000243  00000-0  00000+0 0  9995
2 36397   0.0049 270.0537 0002498 256.3086 194.9441  1.00271155 38342
GOES 15                 
1 36411U 10008A   20226.18105094  .00000055  00000-0  00000-0 0  9994
2 36411   0.0257 145.4916 0001865 315.9592 157.6718  1.00280714 38273
ECHOSTAR 14             
1 36499U 10010A   20226.22572913  .00000002  00000-0  00000-0 0  9998
2 36499   0.0106 118.4999 0002885  22.8520 143.1253  1.00272004 25162
SES-1                   
1 36516U 10016A   20226.33251229 -.00000112  00000-0  00000+0 0  9992
2 36516   0.0615 281.4164 0002226 223.3910 196.0975  1.00271207 37741
ASTRA 3B                
1 36581U 10021A   20226.14831628  .00000139  00000-0  00000-0 0  9995
2 36581   0.0345 354.7291 0003417 158.0737 246.1286  1.00276448 37476
COMSATBW-2              
1 36582U 10021B   20226.33815441  .00000090  00000-0  00000+0 0  9997
2 36582   0.0224  94.6187 0002425  59.9995 302.5328  1.00271052 37593
BADR-5                  
1 36592U 10025A   20226.12534935  .00000147  00000-0  00000+0 0  9998
2 36592   0.0145 131.4007 0005670  24.2655 237.4839  1.00277656 37500
COMS 1                  
1 36744U 10032A   20226.36108262 -.00000342  00000-0  00000+0 0  9999
2 36744   0.0159  86.5268 0000509  66.5106  67.3469  1.00270869 37259
ARABSAT-5A              
1 36745U 10032B   20226.12622171  .00000155  00000-0  00000-0 0  9996
2 36745   0.0609  44.4498 0004980 109.5098 243.9602  1.00270725 37244
ECHOSTAR 15             
1 36792U 10034A   20226.32314983 -.00000280  00000-0  00000+0 0  9990
2 36792   0.0021 187.6543 0001515 312.9250 236.3069  1.00274625 37006
BEIDOU 5                
1 36828U 10036A   20225.28226262 -.00000084  00000-0  10000-3 0  9995
2 36828  54.1687 182.4719 0101387 235.3603 121.0531  1.00299892 36804
NILESAT 201             
1 36830U 10037A   20226.09146650 -.00000055  00000-0  00000-0 0  9995
2 36830   0.0458 190.3708 0005305 304.0144 213.5150  1.00272073 36969
RASCOM-QAF 1R           
1 36831U 10037B   20226.08590934  .00000021  00000-0  00000-0 0  9995
2 36831   0.0188 107.2159 0005339  32.8543 215.7128  1.00272253 36894
AEHF-1 (USA 214)        
1 36868U 10039A   20226.12098755  .00000026  00000-0  00000+0 0  9990
2 36868   2.8748  96.6638 0004976  21.6705 251.3287  1.00266948 37045
CHINASAT 6A (ZX 6A)     
1 37150U 10042A   20225.57558295 -.00000352  00000-0  00000+0 0  9990
2 37150   0.0307 140.5939 0002458  33.9827 119.1410  1.00269956 36497
QZS-1 (MICHIBIKI-1)     
1 37158U 10045A   20225.64345793 -.00000184  00000-0  00000+0 0  9999
2 37158  41.6739 142.8055 0762025 270.9025 277.6587  1.00258500 36314
XM-5                    
1 37185U 10053A   20226.41522049 -.00000203  00000-0  00000+0 0  9997
2 37185   0.0173 102.6856 0002361 297.9223 345.9490  1.00274346 36056
BSAT-3B                 
1 37207U 10056B   20226.33035378 -.00000348  00000-0  00000+0 0  9990
2 37207   0.0972 294.7781 0000826 312.3587 303.8559  1.00270510 35874
BEIDOU 6                
1 37210U 10057A   20223.70674218 -.00000113  00000-0  00000-0 0  9996
2 37210   0.9035  52.0855 0005513 113.4343 208.5583  1.00271893 35864
SKYTERRA 1              
1 37218U 10061A   20226.20952167 -.00000115  00000-0  00000-0 0  9991
2 37218   2.1370   2.5309 0002839 172.3545 121.3051  1.00271742 35807
ZHONGXING-20A           
1 37234U 10064A   20226.16522924 -.00000349  00000-0  00000-0 0  9990
2 37234   0.9941  96.4847 0002758  37.8282  13.5994  1.00277035 35581
HYLAS 1                 
1 37237U 10065A   20226.26049736 -.00000105  00000-0  00000-0 0  9990
2 37237   0.2594  95.4098 0003581  31.6421  89.3056  1.00272269 35584
INTELSAT 17 (IS-17)     
1 37238U 10065B   20226.14303051  .00000001  00000-0  00000+0 0  9994
2 37238   0.0164 174.5926 0002874 338.3423 286.5702  1.00271731 35524
